LANDSAT 5               
1 14780U 84021A   13023.07869689  .00000137  00000-0  37528-4 0  6882
2 14780  98.1173  89.4211 0013429 163.4548 196.7095 14.60850260537011
SPOT 2                  
1 20436U 90005A   13023.20011395  .00000754  00000-0  13385-3 0  1664
2 20436  98.7074 174.8637 0152153 194.5193 165.1612 14.63364300197882
SCD 1                   
1 22490U 93009B   13022.56855241  .00000408  00000-0  64325-4 0   494
2 22490  24.9682 113.5230 0043392 301.6161  58.0131 14.43816684 53106
ERS-2                   
1 23560U 95021A   13022.42055831  .00002709  00000-0  19558-3 0  5578
2 23560  98.5281 160.7450 0003536 310.3148  82.4627 15.05100748932320
RADARSAT-1              
1 23710U 95059A   13023.16912736  .00000168  00000-0  81904-4 0  3035
2 23710  98.5819  32.4895 0001060  93.5821 354.9817 14.29976521898885
TOMS EP                 
1 23940U 96037A   13023.10428781  .00000428  00000-0  11319-3 0  1582
2 23940  97.9143 208.6719 0028287 234.0989 125.7590 14.53094974880458
MIDORI (ADEOS)          
1 24277U 96046A   13022.50935473  .00000043  00000-0  34177-4 0  1345
2 24277  98.5404 327.8946 0001489  51.1679  80.4789 14.28851195856733
ORBVIEW 2 (SEASTAR)     
1 24883U 97037A   13022.40366041  .00000182  00000-0  82737-4 0  9412
2 24883  98.4367 140.9175 0002387 163.9315 196.1945 14.32577212821784
IRS-1D                  
1 24971U 97057A   13023.19729142  .00000174  00000-0  76841-4 0  3698
2 24971  98.2165  11.1277 0053288 326.3805  33.4003 14.33271136801315
TRMM                    
1 25063U 97074A   13023.09888789  .00015212  00000-0  21252-3 0  2246
2 25063  34.9607 274.4556 0001135 255.4518 104.5904 15.55926491865199
SPOT 4                  
1 25260U 98017A   13023.16181958  .00000002  00000-0  20674-4 0  1939
2 25260  98.5342  83.3330 0001440  71.7690 288.3653 14.20108962769108
FASAT B                 
1 25395U 98043B   13023.12915916  .00000052  00000-0  39967-4 0  5341
2 25395  98.3486   5.2012 0001751 324.1122  96.7098 14.24618257755784
TECHSAT 1B (GO-32)      
1 25397U 98043D   13022.87258165  .00000139  00000-0  79370-4 0  9803
2 25397  98.3930 357.1033 0001581  39.4404 320.6885 14.23319361755272
SCD 2                   
1 25504U 98060A   13022.85488877  .00000213  00000-0  94248-5 0  3602
2 25504  24.9964 305.3686 0016617   1.4170 358.6391 14.43430229752558
LANDSAT 7               
1 25682U 99020A   13023.21577664  .00000115  00000-0  35513-4 0  8289
2 25682  98.2104  94.8349 0000894 112.0909 248.0396 14.57106813732728
KITSAT 3                
1 25756U 99029A   13022.22765152  .00000088  00000-0  32704-4 0   269
2 25756  98.5155 268.9372 0015149 124.1695  22.0819 14.52913955724071
DLR-TUBSAT              
1 25757U 99029B   13023.15586002  .00000074  00000-0  30529-4 0  7612
2 25757  98.5592 262.7627 0014471 161.7597 198.4118 14.51018487723532
IRS-P4 (OCEANSAT 1)     
1 25758U 99029C   13022.82057035  .00000198  00000-0  60732-4 0  2605
2 25758  98.2494 116.0219 0002351 146.0926 214.0418 14.51294522723641
QUIKSCAT                
1 25789U 99034A   13023.11949336  .00000045  00000-0  36374-4 0  5106
2 25789  98.6177 215.0720 0001435  54.4357 305.6962 14.26979729708113
IKONOS 2                
1 25919U 99051A   13023.16378433  .00000223  00000-0  51056-4 0  6001
2 25919  98.1044 100.3603 0000883  93.5638 266.5683 14.64461280712664
CBERS 1 (ZY 1A)         
1 25940U 99057A   13022.93950047  .00000026  00000-0  23969-4 0  3844
2 25940  98.2984 344.7431 0006429 106.8131 285.5591 14.34755016695459
TERRA                   
1 25994U 99068A   13023.16190499  .00000207  00000-0  55935-4 0  7784
2 25994  98.2101 100.1416 0001062  91.6672 268.4678 14.57115672696792
ARIRANG 1 (KOMPSAT-1)   
1 26032U 99070A   13023.13241508  .00000420  00000-0  83609-4 0  6983
2 26032  97.7597 224.5649 0005393  26.3832 333.7626 14.66630175700281
EO-1                    
1 26619U 00075A   13023.12540930  .00001011  00000-0  20689-3 0  1284
2 26619  98.0513  89.0929 0011009 136.2031 224.0101 14.62849080648589
SAC-C                   
1 26620U 00075B   13022.38649330  .00000296  00000-0  75051-4 0  8147
2 26620  97.9139   5.8985 0001100 101.6697 258.4640 14.57095154647145
EROS A1                 
1 26631U 00079A   13023.12167894  .00005621  00000-0  35093-3 0  9347
2 26631  97.6297  97.9421 0012412 175.7387 271.5739 15.09833432673581
QUICKBIRD 2             
1 26953U 01047A   13023.17043777  .00008843  00000-0  22411-3 0  2711
2 26953  97.1930  89.6272 0001607 102.7260 291.1481 15.39940002632732
TES                     
1 26957U 01049A   13023.15440254 -.00021161  00000-0 -16080-2 0  2271
2 26957  97.7506 103.9377 0052646  78.2355 282.3592 15.01041480616602
JASON 1                 
1 26997U 01055A   13021.54900142 -.00000050  00000-0  49121-4 0  6080
2 26997  66.0374 217.5179 0006655 283.7831 106.2185 12.83924075520468
METEOR-3M               
1 27001U 01056A   13022.75860209 -.00000048  00000-0 -74637-5 0  2503
2 27001  99.2017 199.9173 0013532 208.0645 226.7991 13.68744713555485
BADR-B                  
1 27003U 01056C   13022.58512884 -.00000031  00000-0  12378-4 0  2749
2 27003  99.1554 205.4709 0020140 201.5405 200.2354 13.70146517556083
MAROC-TUBSAT            
1 27004U 01056D   13021.46109458  .00000024  00000-0  74373-4 0   387
2 27004  99.1589 203.5112 0018965 207.6796 152.3342 13.70062827555894
SPOT 5                  
1 27421U 02021A   13023.16639917  .00000218  00000-0  12246-3 0  1117
2 27421  98.6295  95.6182 0001052 109.7965 334.5235 14.20077076555939
AQUA                    
1 27424U 02022A   13022.97542469  .00000592  00000-0  14133-3 0  5626
2 27424  98.2204 326.3333 0001509  80.8067 279.3350 14.57134548570376
HAIYANG-1A              
1 27430U 02024A   13022.65713591  .00000105  00000-0  56503-4 0  1349
2 27430  98.2988  62.2313 0009827 147.8790   4.5094 14.30129190558056
ALSAT 1                 
1 27559U 02054A   13022.56543134  .00000277  00000-0  53519-4 0  7023
2 27559  97.7744 228.3249 0024574 112.5588 281.5679 14.70175729542912
MIDORI II (ADEOS-II)    
1 27597U 02056A   13022.58855297  .00000114  00000-0  64066-4 0  9262
2 27597  98.3023  52.6294 0001518  72.4385  98.6584 14.26511596526293
IRS-P6 (RESOURCESAT-1)  
1 28051U 03046A   13023.17008882 -.00000002  00000-0  19448-4 0  6925
2 28051  98.7712 100.8760 0002826 299.0328  61.0543 14.21605199481094
CBERS 2 (ZY 1B)         
1 28057U 03049A   13023.18544019  .00000092  00000-0  46430-4 0  1432
2 28057  98.1586  31.3469 0001076  47.8136 312.3143 14.35036436485133
TANSUO 1 (TS 1)         
1 28220U 04012A   13022.03844549  .00000789  00000-0  83967-4 0  4127
2 28220  97.4851   6.4660 0012888 131.9015 268.5225 14.91515765476145
FORMOSAT-2 (ROCSAT 2)   
1 28254U 04018A   13022.97709491 -.00000039  00000-0  32601-5 0  7378
2 28254  98.9377  88.0907 0001226 154.1921 205.5340 14.00783821443725
AURA                    
1 28376U 04026A   13022.63760492  .00000445  00000-0  10892-3 0  7010
2 28376  98.2204 328.1865 0000977 104.9523 255.1748 14.57074440453373
PARASOL                 
1 28498U 04049G   13022.93657864  .00000357  00000-0  84260-4 0  5494
2 28498  98.4422 354.4294 0001214  75.7568 284.3774 14.60115777430910
IRS-P5 (CARTOSAT-1)     
1 28649U 05017A   13023.39907057 -.00000856  00000-0 -97923-4 0  6926
2 28649  97.8865 100.3429 0001986 134.8001 225.2888 14.83427343417910
TOPSAT                  
1 28891U 05043B   13023.01213573  .00000190  00000-0  48418-4 0   722
2 28891  97.8720 242.0299 0017108 175.4340 184.7029 14.60255705385857
SINAH 1                 
1 28893U 05043D   13022.54774823  .00000125  00000-0  34867-4 0  5907
2 28893  97.8809 244.0360 0015934 174.9023 266.4558 14.60475961385869
ALOS (DAICHI)           
1 28931U 06002A   13023.15421965  .00000499  00000-0  11275-3 0  7970
2 28931  98.0510  92.3822 0001094  42.1037 318.0268 14.60237043372870
EROS B                  
1 29079U 06014A   13023.19427178  .00008137  00000-0  39043-3 0  5881
2 29079  97.4427 143.8231 0006202  94.4260  23.8020 15.19121568374265
RSS-1 (YAOGAN 1)        
1 29092U 06015A   13023.02877528  .00000285  00000-0  43409-4 0  3175
2 29092  97.9455  16.6855 0001360 105.0267 287.2451 14.81105226364467
RESURS-DK 1             
1 29228U 06021A   13023.21694213  .00000721  00000-0  65891-4 0  4100
2 29228  69.9346 217.5450 0007357 280.0922  79.9408 14.99759849367098
ARIRANG 2 (KOMPSAT-2)   
1 29268U 06031A   13023.14007591  .00000295  00000-0  68419-4 0  2073
2 29268  98.2393 279.8922 0015619  18.0723 342.1038 14.61998093346324
LAPAN-TUBSAT            
1 29709U 07001A   13023.08261427  .00000269  00000-0  41283-4 0  7092
2 29709  97.6417  50.3118 0012367 317.0520  42.9731 14.80830084326179
CARTOSAT-2 (IRS-P7)     
1 29710U 07001B   13023.18990862  .00000228  00000-0  37943-4 0  6831
2 29710  97.8769  84.2873 0000769  75.4438 284.6895 14.78701026325864
HAIYANG-1B              
1 31113U 07010A   13023.06115423  .00000118  00000-0  62256-4 0  4347
2 31113  98.3806  81.2495 0015478 148.8323 211.3783 14.29802758301946
COSMO-SKYMED 1          
1 31598U 07023A   13023.10253094  .00000431  00000-0  60664-4 0  2594
2 31598  97.8694 210.6505 0001289  80.3368 279.7950 14.82166327304543
TERRASAR-X              
1 31698U 07026A   13023.17957271 -.00000281  00000-0 -10204-4 0  6711
2 31698  97.4437  32.7669 0000982  99.4840 330.3619 15.19148391311056
WORLDVIEW-1 (WV-1)      
1 32060U 07041A   13023.19225262  .00004009  00000-0  16538-3 0  9776
2 32060  97.3323 100.9905 0003832  74.1612   6.5489 15.24608676297589
CBERS 2B                
1 32062U 07042A   13023.16763974  .00000080  00000-0  39684-4 0  5738
2 32062  98.3563  96.3518 0032010 340.5012  19.4976 14.38923175280629
YAOGAN 3                
1 32289U 07055A   13023.07853873  .00000697  00000-0  96483-4 0  7658
2 32289  97.9000  15.7906 0001187 109.3286 250.8063 14.81087689281002
COSMO-SKYMED 2          
1 32376U 07059A   13023.06878177  .00000100  00000-0  19050-4 0  6622
2 32376  97.8695 210.6174 0001383  80.8971 279.2395 14.82156039277288
